XRISM                   
1 57800U 23137A   24206.12534514  .00007955  00000+0  59169-3 0  9993
2 57800  31.0025 137.4073 0009813 216.8486 143.1476 15.01633505 48168
